SL-14 R/B               
1 16792U 86046B   26043.61636184  .00000449  00000+0  49023-4 0  9997
2 16792  82.4808 103.8775 0021933 313.5539  46.3855 14.85565809122686
SL-14 R/B               
1 16882U 86055B   26043.82650417  .00000537  00000+0  59046-4 0  9999
2 16882  82.5235 150.0366 0020144  57.2237  66.3051 14.85616919115671
AJISAI (EGS)            
1 16908U 86061A   26043.90671507 -.00000110  00000+0 -89754-4 0  9995
2 16908  50.0080 169.5551 0011236 223.1261 233.4084 12.44515350464919
COSMOS 1812             
1 17295U 87003A   26043.93951029  .00324635  41312-4  72269-3 0  9992
2 17295  82.4761 223.7643 0002057 306.9050  53.2038 15.97834863140503
SL-14 R/B               
1 17567U 87024B   26043.59158146  .00000465  00000+0  50143-4 0  9992
2 17567  82.5285 116.3539 0017818 348.7739  11.3077 14.86107969 84408
COSMOS 1833             
1 17589U 87027A   26043.94236369  .00000005  00000+0  28509-4 0  9993
2 17589  70.9220  18.0273 0024906 247.8204 112.0274 14.13057152  6823
SL-16 R/B               
1 17590U 87027B   26043.84653635 -.00000115  00000+0 -33319-4 0  9992
2 17590  71.0046 328.8448 0004834 186.6583 173.4478 14.17162831 11825
SL-14 R/B               
1 17912U 87038B   26043.84307982  .00000529  00000+0  58595-4 0  9993
2 17912  82.5038 320.2093 0017751 245.1604 114.7766 14.85345167 75547
COSMOS 1844             
1 17973U 87041A   26043.50874852  .00000450  00000+0  25826-3 0  9995
2 17973  70.8980  87.2918 0028944  58.1650 302.2284 14.14544310    28
SL-14 R/B               
1 18153U 87055B   26043.95907032  .00000597  00000+0  65837-4 0  9996
2 18153  82.5003  12.3347 0022336  94.8155 265.5612 14.85598190 66263
COSMOS 1867             
1 18187U 87060A   26043.91982875 -.00000010  00000+0  34004-4 0  9996
2 18187  65.0118  16.0696 0014158 276.8934  83.0540 14.31499020 16396
SL-14 R/B               
1 18749U 88001B   26043.95265603  .00000557  00000+0  61607-4 0  9997
2 18749  82.5111 218.6261 0017137 324.2272  35.7795 14.85497298 38358
