CCSDS_OMM_VERS = 2.0
CREATION_DATE  = 
ORIGINATOR     = 

OBJECT_NAME    = SL-14 R/B
OBJECT_ID      = 1986-046B
CENTER_NAME    = EARTH
REF_FRAME      = TEME
TIME_SYSTEM    = UTC
MEAN_ELEMENT_THEORY = SGP/SGP4

EPOCH          = 2026-02-12T14:47:33.662976
MEAN_MOTION    = 14.85565809
ECCENTRICITY   = .0021933
INCLINATION    = 82.4808
RA_OF_ASC_NODE = 103.8775
ARG_OF_PERICENTER = 313.5539
MEAN_ANOMALY   = 46.3855

EPHEMERIS_TYPE = 0
CLASSIFICATION_TYPE = U
NORAD_CAT_ID   = 16792
ELEMENT_SET_NO = 999
REV_AT_EPOCH   = 12268
BSTAR          = .49023E-4
MEAN_MOTION_DOT = .449E-5
MEAN_MOTION_DDOT = 0

CCSDS_OMM_VERS = 2.0
CREATION_DATE  = 
ORIGINATOR     = 

OBJECT_NAME    = SL-14 R/B
OBJECT_ID      = 1986-055B
CENTER_NAME    = EARTH
REF_FRAME      = TEME
TIME_SYSTEM    = UTC
MEAN_ELEMENT_THEORY = SGP/SGP4

EPOCH          = 2026-02-12T19:50:09.960288
MEAN_MOTION    = 14.85616919
ECCENTRICITY   = .00201443
INCLINATION    = 82.5235
RA_OF_ASC_NODE = 150.0366
ARG_OF_PERICENTER = 57.2237
MEAN_ANOMALY   = 66.3051

EPHEMERIS_TYPE = 0
CLASSIFICATION_TYPE = U
NORAD_CAT_ID   = 16882
ELEMENT_SET_NO = 999
REV_AT_EPOCH   = 11567
BSTAR          = .59045618E-4
MEAN_MOTION_DOT = .537E-5
MEAN_MOTION_DDOT = 0

CCSDS_OMM_VERS = 2.0
CREATION_DATE  = 
ORIGINATOR     = 

OBJECT_NAME    = AJISAI (EGS)
OBJECT_ID      = 1986-061A
CENTER_NAME    = EARTH
REF_FRAME      = TEME
TIME_SYSTEM    = UTC
MEAN_ELEMENT_THEORY = SGP/SGP4

EPOCH          = 2026-02-12T21:45:40.182048
MEAN_MOTION    = 12.44515350
ECCENTRICITY   = .00112363
INCLINATION    = 50.0080
RA_OF_ASC_NODE = 169.5551
ARG_OF_PERICENTER = 223.1261
MEAN_ANOMALY   = 233.4084

EPHEMERIS_TYPE = 0
CLASSIFICATION_TYPE = U
NORAD_CAT_ID   = 16908
ELEMENT_SET_NO = 999
REV_AT_EPOCH   = 46491
BSTAR          = -.89754066E-4
MEAN_MOTION_DOT = -.11E-5
MEAN_MOTION_DDOT = 0

CCSDS_OMM_VERS = 2.0
CREATION_DATE  = 
ORIGINATOR     = 

OBJECT_NAME    = COSMOS 1812
OBJECT_ID      = 1987-003A
CENTER_NAME    = EARTH
REF_FRAME      = TEME
TIME_SYSTEM    = UTC
MEAN_ELEMENT_THEORY = SGP/SGP4

EPOCH          = 2026-02-12T22:32:53.689056
MEAN_MOTION    = 15.97834863
ECCENTRICITY   = .00020575
INCLINATION    = 82.4761
RA_OF_ASC_NODE = 223.7643
ARG_OF_PERICENTER = 306.9050
MEAN_ANOMALY   = 53.2038

EPHEMERIS_TYPE = 0
CLASSIFICATION_TYPE = U
NORAD_CAT_ID   = 17295
ELEMENT_SET_NO = 999
REV_AT_EPOCH   = 14050
BSTAR          = .72269124E-3
MEAN_MOTION_DOT = .324635E-2
MEAN_MOTION_DDOT = .41312381E-4

CCSDS_OMM_VERS = 2.0
CREATION_DATE  = 
ORIGINATOR     = 

OBJECT_NAME    = SL-14 R/B
OBJECT_ID      = 1987-024B
CENTER_NAME    = EARTH
REF_FRAME      = TEME
TIME_SYSTEM    = UTC
MEAN_ELEMENT_THEORY = SGP/SGP4

EPOCH          = 2026-02-12T14:11:52.638144
MEAN_MOTION    = 14.86107969
ECCENTRICITY   = .0017818
INCLINATION    = 82.5285
RA_OF_ASC_NODE = 116.3539
ARG_OF_PERICENTER = 348.7739
MEAN_ANOMALY   = 11.3077

EPHEMERIS_TYPE = 0
CLASSIFICATION_TYPE = U
NORAD_CAT_ID   = 17567
ELEMENT_SET_NO = 999
REV_AT_EPOCH   = 8440
BSTAR          = .50143E-4
MEAN_MOTION_DOT = .465E-5
MEAN_MOTION_DDOT = 0

CCSDS_OMM_VERS = 2.0
CREATION_DATE  = 
ORIGINATOR     = 

OBJECT_NAME    = COSMOS 1833
OBJECT_ID      = 1987-027A
CENTER_NAME    = EARTH
REF_FRAME      = TEME
TIME_SYSTEM    = UTC
MEAN_ELEMENT_THEORY = SGP/SGP4

EPOCH          = 2026-02-12T22:37:00.222816
MEAN_MOTION    = 14.13057152
ECCENTRICITY   = .00249065
INCLINATION    = 70.9220
RA_OF_ASC_NODE = 18.0273
ARG_OF_PERICENTER = 247.8204
MEAN_ANOMALY   = 112.0274

EPHEMERIS_TYPE = 0
CLASSIFICATION_TYPE = U
NORAD_CAT_ID   = 17589
ELEMENT_SET_NO = 999
REV_AT_EPOCH   = 682
BSTAR          = .28508633E-4
MEAN_MOTION_DOT = .5E-7
MEAN_MOTION_DDOT = 0

CCSDS_OMM_VERS = 2.0
CREATION_DATE  = 
ORIGINATOR     = 

OBJECT_NAME    = SL-16 R/B
OBJECT_ID      = 1987-027B
CENTER_NAME    = EARTH
REF_FRAME      = TEME
TIME_SYSTEM    = UTC
MEAN_ELEMENT_THEORY = SGP/SGP4

EPOCH          = 2026-02-12T20:19:00.740640
MEAN_MOTION    = 14.17162831
ECCENTRICITY   = .00048348
INCLINATION    = 71.0046
RA_OF_ASC_NODE = 328.8448
ARG_OF_PERICENTER = 186.6583
MEAN_ANOMALY   = 173.4478

EPHEMERIS_TYPE = 0
CLASSIFICATION_TYPE = U
NORAD_CAT_ID   = 17590
ELEMENT_SET_NO = 999
REV_AT_EPOCH   = 1182
BSTAR          = -.33318571E-4
MEAN_MOTION_DOT = -.115E-5
MEAN_MOTION_DDOT = 0

CCSDS_OMM_VERS = 2.0
CREATION_DATE  = 
ORIGINATOR     = 

OBJECT_NAME    = SL-14 R/B
OBJECT_ID      = 1987-038B
CENTER_NAME    = EARTH
REF_FRAME      = TEME
TIME_SYSTEM    = UTC
MEAN_ELEMENT_THEORY = SGP/SGP4

EPOCH          = 2026-02-12T20:14:02.096448
MEAN_MOTION    = 14.85345167
ECCENTRICITY   = .00177515
INCLINATION    = 82.5038
RA_OF_ASC_NODE = 320.2093
ARG_OF_PERICENTER = 245.1604
MEAN_ANOMALY   = 114.7766

EPHEMERIS_TYPE = 0
CLASSIFICATION_TYPE = U
NORAD_CAT_ID   = 17912
ELEMENT_SET_NO = 999
REV_AT_EPOCH   = 7554
BSTAR          = .58595209E-4
MEAN_MOTION_DOT = .529E-5
MEAN_MOTION_DDOT = 0

CCSDS_OMM_VERS = 2.0
CREATION_DATE  = 
ORIGINATOR     = 

OBJECT_NAME    = COSMOS 1844
OBJECT_ID      = 1987-041A
CENTER_NAME    = EARTH
REF_FRAME      = TEME
TIME_SYSTEM    = UTC
MEAN_ELEMENT_THEORY = SGP/SGP4

EPOCH          = 2026-02-12T12:12:35.872128
MEAN_MOTION    = 14.14544310
ECCENTRICITY   = .00289446
INCLINATION    = 70.8980
RA_OF_ASC_NODE = 87.2918
ARG_OF_PERICENTER = 58.1650
MEAN_ANOMALY   = 302.2284

EPHEMERIS_TYPE = 0
CLASSIFICATION_TYPE = U
NORAD_CAT_ID   = 17973
ELEMENT_SET_NO = 999
REV_AT_EPOCH   = 2
BSTAR          = .25826306E-3
MEAN_MOTION_DOT = .45E-5
MEAN_MOTION_DDOT = 0

CCSDS_OMM_VERS = 2.0
CREATION_DATE  = 
ORIGINATOR     = 

OBJECT_NAME    = SL-14 R/B
OBJECT_ID      = 1987-055B
CENTER_NAME    = EARTH
REF_FRAME      = TEME
TIME_SYSTEM    = UTC
MEAN_ELEMENT_THEORY = SGP/SGP4

EPOCH          = 2026-02-12T23:01:03.675648
MEAN_MOTION    = 14.85598190
ECCENTRICITY   = .0022336
INCLINATION    = 82.5003
RA_OF_ASC_NODE = 12.3347
ARG_OF_PERICENTER = 94.8155
MEAN_ANOMALY   = 265.5612

EPHEMERIS_TYPE = 0
CLASSIFICATION_TYPE = U
NORAD_CAT_ID   = 18153
ELEMENT_SET_NO = 999
REV_AT_EPOCH   = 6626
BSTAR          = .65836576E-4
MEAN_MOTION_DOT = .597E-5
MEAN_MOTION_DDOT = 0

CCSDS_OMM_VERS = 2.0
CREATION_DATE  = 
ORIGINATOR     = 

OBJECT_NAME    = COSMOS 1867
OBJECT_ID      = 1987-060A
CENTER_NAME    = EARTH
REF_FRAME      = TEME
TIME_SYSTEM    = UTC
MEAN_ELEMENT_THEORY = SGP/SGP4

EPOCH          = 2026-02-12T22:04:33.204000
MEAN_MOTION    = 14.31499020
ECCENTRICITY   = .00141588
INCLINATION    = 65.0118
RA_OF_ASC_NODE = 16.0696
ARG_OF_PERICENTER = 276.8934
MEAN_ANOMALY   = 83.0540

EPHEMERIS_TYPE = 0
CLASSIFICATION_TYPE = U
NORAD_CAT_ID   = 18187
ELEMENT_SET_NO = 999
REV_AT_EPOCH   = 1639
BSTAR          = .34003666E-4
MEAN_MOTION_DOT = -.1E-6
MEAN_MOTION_DDOT = 0

CCSDS_OMM_VERS = 2.0
CREATION_DATE  = 
ORIGINATOR     = 

OBJECT_NAME    = SL-14 R/B
OBJECT_ID      = 1988-001B
CENTER_NAME    = EARTH
REF_FRAME      = TEME
TIME_SYSTEM    = UTC
MEAN_ELEMENT_THEORY = SGP/SGP4

EPOCH          = 2026-02-12T22:51:49.480992
MEAN_MOTION    = 14.85497298
ECCENTRICITY   = .00171372
INCLINATION    = 82.5111
RA_OF_ASC_NODE = 218.6261
ARG_OF_PERICENTER = 324.2272
MEAN_ANOMALY   = 35.7795

EPHEMERIS_TYPE = 0
CLASSIFICATION_TYPE = U
NORAD_CAT_ID   = 18749
ELEMENT_SET_NO = 999
REV_AT_EPOCH   = 3835
BSTAR          = .61606756E-4
MEAN_MOTION_DOT = .557E-5
MEAN_MOTION_DDOT = 0

